{
  "type": "FeatureCollection",
  "elements": [
    {
      "type": "node",
      "id": 4731136715,
      "lat": 46.2131359,
      "lon": 9.0180954,
      "tags": {
        "amenity": "parking"
      }
    },
    {
      "type": "node",
      "id": 5915904673,
      "lat": 46.2065828,
      "lon": 9.0278623,
      "tags": {
        "amenity": "parking"
      }
    },
    {
      "type": "node",
      "id": 5915904674,
      "lat": 46.2066414,
      "lon": 9.0278124,
      "tags": {
        "amenity": "parking"
      }
    },
    {
      "type": "node",
      "id": 5915904675,
      "lat": 46.2064127,
      "lon": 9.028125,
      "tags": {
        "amenity": "parking"
      }
    },
    {
      "type": "node",
      "id": 5915904676,
      "lat": 46.2063373,
      "lon": 9.0282763,
      "tags": {
        "amenity": "parking"
      }
    },
    {
      "type": "node",
      "id": 5915904677,
      "lat": 46.2062622,
      "lon": 9.0283709,
      "tags": {
        "amenity": "parking"
      }
    },
    {
      "type": "node",
      "id": 5915904678,
      "lat": 46.2060281,
      "lon": 9.0287246,
      "tags": {
        "amenity": "parking"
      }
    },
    {
      "type": "node",
      "id": 10763144979,
      "lat": 46.2064166,
      "lon": 9.0253651,
      "tags": {
        "amenity": "parking"
      }
    },
    {
      "type": "node",
      "id": 691728228,
      "lat": 46.2175481,
      "lon": 8.7384802,
      "tags": {
        "amenity": "parking"
      }
    },
    {
      "type": "node",
      "id": 11343315370,
      "lat": 46.2036784,
      "lon": 8.7440697,
      "tags": {
        "amenity": "parking"
      }
    },
    {
      "type": "node",
      "id": 11343352969,
      "lat": 46.2103368,
      "lon": 8.7452659,
      "tags": {
        "amenity": "parking"
      }
    },
    {
      "type": "node",
      "id": 11343355869,
      "lat": 46.2099158,
      "lon": 8.7453049,
      "tags": {
        "amenity": "parking"
      }
    },
    {
      "type": "node",
      "id": 691728228,
      "lat": 46.2175481,
      "lon": 8.7384802,
      "tags": {
        "amenity": "parking"
      }
    },
    {
      "type": "node",
      "id": 11343315370,
      "lat": 46.2036784,
      "lon": 8.7440697,
      "tags": {
        "amenity": "parking"
      }
    },
    {
      "type": "node",
      "id": 11343352969,
      "lat": 46.2103368,
      "lon": 8.7452659,
      "tags": {
        "amenity": "parking"
      }
    },
    {
      "type": "node",
      "id": 11343355869,
      "lat": 46.2099158,
      "lon": 8.7453049,
      "tags": {
        "amenity": "parking"
      }
    },
    {
      "type": "node",
      "id": 915455972,
      "lat": 46.1827044,
      "lon": 8.7513058,
      "tags": {
        "access": "yes",
        "amenity": "parking",
        "fee": "no",
        "name": "Tegna Sport",
        "parking": "surface"
      }
    },
    {
      "type": "node",
      "id": 8489579102,
      "lat": 46.1945543,
      "lon": 8.7532385,
      "tags": {
        "amenity": "parking"
      }
    },
    {
      "type": "node",
      "id": 915455972,
      "lat": 46.1827044,
      "lon": 8.7513058,
      "tags": {
        "access": "yes",
        "amenity": "parking",
        "fee": "no",
        "name": "Tegna Sport",
        "parking": "surface"
      }
    },
    {
      "type": "node",
      "id": 8489579102,
      "lat": 46.1945543,
      "lon": 8.7532385,
      "tags": {
        "amenity": "parking"
      }
    },
    {
      "type": "node",
      "id": 1759968653,
      "lat": 46.9733677,
      "lon": 8.3380511,
      "tags": {
        "access": "yes",
        "amenity": "parking",
        "capacity": "4",
        "fee": "yes",
        "parking": "surface"
      }
    },
    {
      "type": "node",
      "id": 3096126771,
      "lat": 46.977469,
      "lon": 8.3358556,
      "tags": {
        "access": "yes",
        "amenity": "parking",
        "fee": "yes",
        "layer": "-1",
        "name": "Bahnhof Stansstad",
        "name:de": "Bahnhof Stansstad",
        "park_ride": "yes",
        "parking": "underground",
        "supervised": "no",
        "surface": "asphalt"
      }
    },
    {
      "type": "node",
      "id": 10884003175,
      "lat": 46.9772498,
      "lon": 8.3358748,
      "tags": {
        "amenity": "parking",
        "parking": "street_side"
      }
    },
    {
      "type": "node",
      "id": 9527461175,
      "lat": 46.1645681,
      "lon": 8.7383607,
      "tags": {
        "access": "customers",
        "amenity": "parking",
        "parking": "surface"
      }
    },
    {
      "type": "node",
      "id": 9527461180,
      "lat": 46.16545,
      "lon": 8.7370538,
      "tags": {
        "access": "customers",
        "amenity": "parking",
        "parking": "surface",
        "surface": "pebblestone"
      }
    },
    {
      "type": "node",
      "id": 2002525281,
      "lat": 46.1538003,
      "lon": 8.7424395,
      "tags": {
        "amenity": "parking",
        "parking": "surface"
      }
    },
    {
      "type": "node",
      "id": 10819000700,
      "lat": 46.1549568,
      "lon": 8.7410374,
      "tags": {
        "amenity": "parking"
      }
    },
    {
      "type": "node",
      "id": 5833541961,
      "lat": 47.3809235,
      "lon": 8.028462,
      "tags": {
        "amenity": "parking"
      }
    },
    {
      "type": "node",
      "id": 6051465626,
      "lat": 47.0332066,
      "lon": 8.6275915,
      "tags": {
        "amenity": "parking",
        "layer": "-1",
        "parking": "underground"
      }
    },
    {
      "type": "node",
      "id": 8489579102,
      "lat": 46.1945543,
      "lon": 8.7532385,
      "tags": {
        "amenity": "parking"
      }
    },
    {
      "type": "node",
      "id": 8489579102,
      "lat": 46.1945543,
      "lon": 8.7532385,
      "tags": {
        "amenity": "parking"
      }
    },
    {
      "type": "node",
      "id": 546239451,
      "lat": 46.3603731,
      "lon": 8.9565793,
      "tags": {
        "amenity": "parking"
      }
    },
    {
      "type": "node",
      "id": 2131913078,
      "lat": 46.0270995,
      "lon": 8.9544285,
      "tags": {
        "amenity": "parking"
      }
    },
    {
      "type": "node",
      "id": 2291260302,
      "lat": 46.0180542,
      "lon": 8.942102,
      "tags": {
        "amenity": "parking",
        "parking": "surface"
      }
    },
    {
      "type": "node",
      "id": 4375836421,
      "lat": 46.0263036,
      "lon": 8.9363271,
      "tags": {
        "amenity": "parking",
        "name": "Parcheggio Manor"
      }
    },
    {
      "type": "node",
      "id": 4377490074,
      "lat": 46.0257856,
      "lon": 8.9373108,
      "tags": {
        "amenity": "parking",
        "name": "Parcheggio Motel"
      }
    },
    {
      "type": "node",
      "id": 9631852382,
      "lat": 46.0257089,
      "lon": 8.9484578,
      "tags": {
        "amenity": "parking"
      }
    },
    {
      "type": "node",
      "id": 324591192,
      "lat": 47.4635568,
      "lon": 7.6039398,
      "tags": {
        "amenity": "parking",
        "created_by": "Potlatch 0.10f"
      }
    },
    {
      "type": "node",
      "id": 4830848655,
      "lat": 47.4349978,
      "lon": 7.6182478,
      "tags": {
        "amenity": "parking",
        "capacity": "4",
        "fee": "no",
        "park_ride": "yes"
      }
    },
    {
      "type": "node",
      "id": 4830848656,
      "lat": 47.4339055,
      "lon": 7.6203721,
      "tags": {
        "amenity": "parking",
        "capacity": "8",
        "fee": "no"
      }
    },
    {
      "type": "node",
      "id": 290105566,
      "lat": 46.8970801,
      "lon": 8.2513621,
      "tags": {
        "amenity": "parking",
        "layer": "-1",
        "name": "Parkhaus Migros",
        "parking": "underground"
      }
    },
    {
      "type": "node",
      "id": 3263663902,
      "lat": 46.8954762,
      "lon": 8.2476732,
      "tags": {
        "amenity": "parking",
        "park_ride": "yes"
      }
    },
    {
      "type": "node",
      "id": 5324537993,
      "lat": 46.8972059,
      "lon": 8.2513496,
      "tags": {
        "access": "customers",
        "amenity": "parking",
        "fee": "no",
        "name": "Parkhaus Coop",
        "parking": "multi-storey",
        "supervised": "no",
        "surface": "asphalt"
      }
    },
    {
      "type": "node",
      "id": 5914312169,
      "lat": 46.8963815,
      "lon": 8.2470806,
      "tags": {
        "amenity": "parking",
        "capacity": "5"
      }
    },
    {
      "type": "node",
      "id": 5920380821,
      "lat": 46.8964681,
      "lon": 8.2505608,
      "tags": {
        "access": "customers",
        "amenity": "parking",
        "capacity": "3",
        "parking": "surface"
      }
    },
    {
      "type": "node",
      "id": 10742036905,
      "lat": 47.3400109,
      "lon": 7.9198517,
      "tags": {
        "access": "yes",
        "amenity": "parking",
        "fee": "no",
        "parking": "surface"
      }
    },
    {
      "type": "node",
      "id": 11816473322,
      "lat": 47.342243,
      "lon": 7.9052186,
      "tags": {
        "amenity": "parking",
        "capacity": "3",
        "parking": "surface"
      }
    },
    {
      "type": "node",
      "id": 4895439356,
      "lat": 47.4738922,
      "lon": 7.6215482,
      "tags": {
        "amenity": "parking",
        "capacity": "4",
        "parking": "street_side"
      }
    },
    {
      "type": "node",
      "id": 5681184377,
      "lat": 47.4968936,
      "lon": 7.6804789,
      "tags": {
        "amenity": "parking",
        "capacity": "3",
        "fee": "no",
        "surface": "gravel"
      }
    },
    {
      "type": "node",
      "id": 5681184378,
      "lat": 47.4965289,
      "lon": 7.6799948,
      "tags": {
        "access": "yes",
        "amenity": "parking",
        "capacity": "10",
        "fee": "no",
        "park_ride": "no",
        "supervised": "no",
        "surface": "gravel"
      }
    },
    {
      "type": "node",
      "id": 874474928,
      "lat": 47.2930734,
      "lon": 7.3801572,
      "tags": {
        "amenity": "parking"
      }
    },
    {
      "type": "node",
      "id": 5546474987,
      "lat": 47.4574814,
      "lon": 7.5451535,
      "tags": {
        "amenity": "parking",
        "capacity": "2",
        "parking": "lane",
        "surface": "unpaved"
      }
    },
    {
      "type": "node",
      "id": 5547066116,
      "lat": 47.4572935,
      "lon": 7.5453105,
      "tags": {
        "amenity": "parking",
        "capacity": "2",
        "parking": "lane",
        "surface": "unpaved"
      }
    },
    {
      "type": "node",
      "id": 2536354394,
      "lat": 46.2939514,
      "lon": 8.640918,
      "tags": {
        "access": "yes",
        "amenity": "parking",
        "fee": "no",
        "parking": "surface"
      }
    },
    {
      "type": "node",
      "id": 2536354394,
      "lat": 46.2939514,
      "lon": 8.640918,
      "tags": {
        "access": "yes",
        "amenity": "parking",
        "fee": "no",
        "parking": "surface"
      }
    },
    {
      "type": "node",
      "id": 2970766392,
      "lat": 46.9696929,
      "lon": 8.3095441,
      "tags": {
        "amenity": "parking",
        "fee": "no",
        "source": "survey"
      }
    },
    {
      "type": "node",
      "id": 286740296,
      "lat": 47.3074163,
      "lon": 7.6890817,
      "tags": {
        "amenity": "parking"
      }
    },
    {
      "type": "node",
      "id": 286740298,
      "lat": 47.3074921,
      "lon": 7.6897599,
      "tags": {
        "amenity": "parking"
      }
    },
    {
      "type": "node",
      "id": 6877334467,
      "lat": 47.2963108,
      "lon": 7.7043329,
      "tags": {
        "amenity": "parking",
        "operator": "Agrola"
      }
    },
    {
      "type": "node",
      "id": 6877334468,
      "lat": 47.2963653,
      "lon": 7.7045528,
      "tags": {
        "amenity": "parking",
        "operator": "Agrola"
      }
    },
    {
      "type": "node",
      "id": 6877334469,
      "lat": 47.2967801,
      "lon": 7.7044885,
      "tags": {
        "amenity": "parking",
        "operator": "Agrola"
      }
    },
    {
      "type": "node",
      "id": 6877334471,
      "lat": 47.2962232,
      "lon": 7.7048462,
      "tags": {
        "amenity": "parking"
      }
    },
    {
      "type": "node",
      "id": 6881453391,
      "lat": 47.3041682,
      "lon": 7.6944764,
      "tags": {
        "amenity": "parking",
        "capacity": "4",
        "parking": "surface"
      }
    },
    {
      "type": "node",
      "id": 286740296,
      "lat": 47.3074163,
      "lon": 7.6890817,
      "tags": {
        "amenity": "parking"
      }
    },
    {
      "type": "node",
      "id": 286740298,
      "lat": 47.3074921,
      "lon": 7.6897599,
      "tags": {
        "amenity": "parking"
      }
    },
    {
      "type": "node",
      "id": 6877334467,
      "lat": 47.2963108,
      "lon": 7.7043329,
      "tags": {
        "amenity": "parking",
        "operator": "Agrola"
      }
    },
    {
      "type": "node",
      "id": 6877334468,
      "lat": 47.2963653,
      "lon": 7.7045528,
      "tags": {
        "amenity": "parking",
        "operator": "Agrola"
      }
    },
    {
      "type": "node",
      "id": 6877334469,
      "lat": 47.2967801,
      "lon": 7.7044885,
      "tags": {
        "amenity": "parking",
        "operator": "Agrola"
      }
    },
    {
      "type": "node",
      "id": 6877334471,
      "lat": 47.2962232,
      "lon": 7.7048462,
      "tags": {
        "amenity": "parking"
      }
    },
    {
      "type": "node",
      "id": 6881453391,
      "lat": 47.3041682,
      "lon": 7.6944764,
      "tags": {
        "amenity": "parking",
        "capacity": "4",
        "parking": "surface"
      }
    },
    {
      "type": "node",
      "id": 11223034618,
      "lat": 46.8634925,
      "lon": 8.2429919,
      "tags": {
        "amenity": "parking"
      }
    },
    {
      "type": "node",
      "id": 2864867933,
      "lat": 47.1305642,
      "lon": 7.2201007,
      "tags": {
        "amenity": "parking"
      }
    },
    {
      "type": "node",
      "id": 5383260878,
      "lat": 47.3155792,
      "lon": 7.6936725,
      "tags": {
        "access": "yes",
        "amenity": "parking"
      }
    },
    {
      "type": "node",
      "id": 6870874393,
      "lat": 47.3170755,
      "lon": 7.6950762,
      "tags": {
        "amenity": "parking",
        "capacity": "15"
      }
    },
    {
      "type": "node",
      "id": 6870874395,
      "lat": 47.3159194,
      "lon": 7.6969518,
      "tags": {
        "amenity": "parking",
        "capacity": "3"
      }
    },
    {
      "type": "node",
      "id": 6870874397,
      "lat": 47.3202321,
      "lon": 7.695654,
      "tags": {
        "amenity": "parking",
        "operator": "Friedhof"
      }
    },
    {
      "type": "node",
      "id": 6881465632,
      "lat": 47.3170273,
      "lon": 7.6951714,
      "tags": {
        "amenity": "parking",
        "capacity": "10"
      }
    },
    {
      "type": "node",
      "id": 6881465633,
      "lat": 47.3174528,
      "lon": 7.6952787,
      "tags": {
        "amenity": "parking",
        "capacity": "10"
      }
    },
    {
      "type": "node",
      "id": 6881473006,
      "lat": 47.3170164,
      "lon": 7.6959144,
      "tags": {
        "amenity": "parking"
      }
    },
    {
      "type": "node",
      "id": 291662314,
      "lat": 46.7798896,
      "lon": 7.1500438,
      "tags": {
        "amenity": "parking",
        "capacity:disabled": "yes",
        "fee": "no",
        "parking": "surface",
        "surface": "asphalt"
      }
    },
    {
      "type": "node",
      "id": 291662315,
      "lat": 46.7800462,
      "lon": 7.1505078,
      "tags": {
        "access": "customers",
        "amenity": "parking",
        "capacity:disabled": "yes",
        "fee": "no",
        "layer": "-1",
        "parking": "underground"
      }
    },
    {
      "type": "node",
      "id": 360390909,
      "lat": 46.7834515,
      "lon": 7.1488183,
      "tags": {
        "amenity": "parking"
      }
    },
    {
      "type": "node",
      "id": 360390934,
      "lat": 46.7842518,
      "lon": 7.1527233,
      "tags": {
        "amenity": "parking"
      }
    },
    {
      "type": "node",
      "id": 9549121422,
      "lat": 46.7845193,
      "lon": 7.1458143,
      "tags": {
        "access": "permit",
        "amenity": "parking",
        "capacity:disabled": "0",
        "operator": "Commune de Marly",
        "operator:type": "public",
        "parking": "surface",
        "surface": "asphalt"
      }
    },
    {
      "type": "node",
      "id": 10031426291,
      "lat": 46.794336,
      "lon": 7.1548181,
      "tags": {
        "amenity": "parking"
      }
    },
    {
      "type": "node",
      "id": 12229138989,
      "lat": 46.7835169,
      "lon": 7.149474,
      "tags": {
        "amenity": "parking",
        "layer": "-1",
        "parking": "underground"
      }
    },
    {
      "type": "node",
      "id": 12229145950,
      "lat": 46.7822812,
      "lon": 7.1528473,
      "tags": {
        "amenity": "parking",
        "layer": "-1",
        "parking": "underground"
      }
    },
    {
      "type": "node",
      "id": 12236150908,
      "lat": 46.7836533,
      "lon": 7.1522809,
      "tags": {
        "amenity": "parking",
        "layer": "-1",
        "parking": "underground"
      }
    },
    {
      "type": "node",
      "id": 2320997133,
      "lat": 46.3800897,
      "lon": 8.906852,
      "tags": {
        "amenity": "parking",
        "fee": "yes",
        "park_ride": "yes",
        "parking": "surface"
      }
    },
    {
      "type": "node",
      "id": 7557016499,
      "lat": 46.3909567,
      "lon": 8.9077741,
      "tags": {
        "amenity": "parking"
      }
    },
    {
      "type": "node",
      "id": 12183626308,
      "lat": 46.3911247,
      "lon": 8.9082806,
      "tags": {
        "amenity": "parking"
      }
    },
    {
      "type": "node",
      "id": 2320997133,
      "lat": 46.3800897,
      "lon": 8.906852,
      "tags": {
        "amenity": "parking",
        "fee": "yes",
        "park_ride": "yes",
        "parking": "surface"
      }
    },
    {
      "type": "node",
      "id": 7557016499,
      "lat": 46.3909567,
      "lon": 8.9077741,
      "tags": {
        "amenity": "parking"
      }
    },
    {
      "type": "node",
      "id": 12183626308,
      "lat": 46.3911247,
      "lon": 8.9082806,
      "tags": {
        "amenity": "parking"
      }
    },
    {
      "type": "node",
      "id": 362808018,
      "lat": 46.6859491,
      "lon": 7.6875111,
      "tags": {
        "amenity": "parking",
        "capacity": "6",
        "capacity:disabled": "no"
      }
    },
    {
      "type": "node",
      "id": 1634938091,
      "lat": 46.6782897,
      "lon": 7.7001865,
      "tags": {
        "amenity": "parking"
      }
    },
    {
      "type": "node",
      "id": 2252787737,
      "lat": 46.6758221,
      "lon": 7.7005112,
      "tags": {
        "access": "yes",
        "amenity": "parking",
        "fee": "yes",
        "parking": "surface"
      }
    },
    {
      "type": "node",
      "id": 5310939639,
      "lat": 47.0658048,
      "lon": 9.0612584,
      "tags": {
        "amenity": "parking",
        "parking": "surface"
      }
    },
    {
      "type": "node",
      "id": 5312277929,
      "lat": 47.0686238,
      "lon": 9.0561153,
      "tags": {
        "access": "customers",
        "amenity": "parking",
        "parking": "underground"
      }
    },
    {
      "type": "node",
      "id": 7688244434,
      "lat": 47.0683093,
      "lon": 9.058279,
      "tags": {
        "access": "customers",
        "amenity": "parking",
        "fee": "no",
        "parking": "rooftop"
      }
    },
    {
      "type": "node",
      "id": 290199096,
      "lat": 46.3148924,
      "lon": 7.989311,
      "tags": {
        "amenity": "parking",
        "fee": "yes",
        "layer": "-1",
        "name": "Parkhaus Altstadt",
        "parking": "underground",
        "wheelchair": "limited"
      }
    },
    {
      "type": "node",
      "id": 1876570223,
      "lat": 46.3215799,
      "lon": 7.9816861,
      "tags": {
        "access": "customers",
        "amenity": "parking",
        "fee": "no",
        "operator": "La Caverna (Festung / Gardemuseum)",
        "parking": "surface"
      }
    },
    {
      "type": "node",
      "id": 7482854248,
      "lat": 46.3299921,
      "lon": 7.983078,
      "tags": {
        "amenity": "parking",
        "parking": "surface"
      }
    },
    {
      "type": "node",
      "id": 10695631201,
      "lat": 46.3222702,
      "lon": 7.9849929,
      "tags": {
        "amenity": "parking",
        "fee": "yes",
        "layer": "-1",
        "parking": "underground"
      }
    },
    {
      "type": "node",
      "id": 1950607802,
      "lat": 46.6914561,
      "lon": 7.8334931,
      "tags": {
        "amenity": "parking"
      }
    },
    {
      "type": "node",
      "id": 861602650,
      "lat": 46.3156,
      "lon": 7.7468601,
      "tags": {
        "access": "yes",
        "amenity": "parking",
        "capacity": "40",
        "charge": "1 CHF",
        "fee": "yes",
        "layer": "-1",
        "operator": "Gemeinde Steg-Hohtenn",
        "operator:type": "community",
        "parking": "underground",
        "payment:cash": "yes",
        "surface": "concrete"
      }
    },
    {
      "type": "node",
      "id": 5960732806,
      "lat": 46.3175517,
      "lon": 7.7531803,
      "tags": {
        "access": "yes",
        "amenity": "parking",
        "fee": "no",
        "parking": "street_side"
      }
    },
    {
      "type": "node",
      "id": 11044727009,
      "lat": 46.6609735,
      "lon": 7.8665017,
      "tags": {
        "access": "customers",
        "amenity": "parking",
        "survey:date": "2023-07-13"
      }
    },
    {
      "type": "node",
      "id": 10223144356,
      "lat": 46.275222,
      "lon": 9.0262824,
      "tags": {
        "amenity": "parking",
        "capacity": "15",
        "ele": "808",
        "fee": "no",
        "surface": "ground"
      }
    },
    {
      "type": "node",
      "id": 8990066638,
      "lat": 47.2447927,
      "lon": 7.3514687,
      "tags": {
        "amenity": "parking"
      }
    },
    {
      "type": "node",
      "id": 2712881126,
      "lat": 47.0273727,
      "lon": 9.5295829,
      "tags": {
        "amenity": "parking",
        "source": "geoimage.at"
      }
    },
    {
      "type": "node",
      "id": 426920647,
      "lat": 47.1910423,
      "lon": 7.2087949,
      "tags": {
        "amenity": "parking",
        "parking": "surface"
      }
    },
    {
      "type": "node",
      "id": 426920675,
      "lat": 47.1939606,
      "lon": 7.2178897,
      "tags": {
        "amenity": "parking",
        "parking": "surface"
      }
    },
    {
      "type": "node",
      "id": 430193449,
      "lat": 47.1909318,
      "lon": 7.2043832,
      "tags": {
        "amenity": "parking",
        "parking": "surface"
      }
    },
    {
      "type": "node",
      "id": 426920647,
      "lat": 47.1910423,
      "lon": 7.2087949,
      "tags": {
        "amenity": "parking",
        "parking": "surface"
      }
    },
    {
      "type": "node",
      "id": 426920675,
      "lat": 47.1939606,
      "lon": 7.2178897,
      "tags": {
        "amenity": "parking",
        "parking": "surface"
      }
    },
    {
      "type": "node",
      "id": 430193449,
      "lat": 47.1909318,
      "lon": 7.2043832,
      "tags": {
        "amenity": "parking",
        "parking": "surface"
      }
    },
    {
      "type": "node",
      "id": 5782054554,
      "lat": 46.9895882,
      "lon": 8.5498577,
      "tags": {
        "amenity": "parking"
      }
    },
    {
      "type": "node",
      "id": 426920647,
      "lat": 47.1910423,
      "lon": 7.2087949,
      "tags": {
        "amenity": "parking",
        "parking": "surface"
      }
    },
    {
      "type": "node",
      "id": 426920675,
      "lat": 47.1939606,
      "lon": 7.2178897,
      "tags": {
        "amenity": "parking",
        "parking": "surface"
      }
    },
    {
      "type": "node",
      "id": 426920647,
      "lat": 47.1910423,
      "lon": 7.2087949,
      "tags": {
        "amenity": "parking",
        "parking": "surface"
      }
    },
    {
      "type": "node",
      "id": 426920675,
      "lat": 47.1939606,
      "lon": 7.2178897,
      "tags": {
        "amenity": "parking",
        "parking": "surface"
      }
    },
    {
      "type": "node",
      "id": 266013107,
      "lat": 47.4783353,
      "lon": 7.6585518,
      "tags": {
        "access": "yes",
        "amenity": "parking",
        "capacity": "10",
        "capacity:disabled": "0",
        "fee": "no",
        "parking": "surface",
        "surface": "unpaved"
      }
    },
    {
      "type": "node",
      "id": 5782054554,
      "lat": 46.9895882,
      "lon": 8.5498577,
      "tags": {
        "amenity": "parking"
      }
    },
    {
      "type": "node",
      "id": 8762120396,
      "lat": 46.7444607,
      "lon": 8.1447087,
      "tags": {
        "amenity": "parking"
      }
    },
    {
      "type": "node",
      "id": 1817827524,
      "lat": 47.3351806,
      "lon": 7.8112704,
      "tags": {
        "amenity": "parking",
        "parking": "surface"
      }
    },
    {
      "type": "node",
      "id": 1817828050,
      "lat": 47.3390098,
      "lon": 7.8050829,
      "tags": {
        "access": "yes",
        "amenity": "parking",
        "capacity": "15",
        "fee": "no",
        "parking": "surface"
      }
    },
    {
      "type": "node",
      "id": 5782054554,
      "lat": 46.9895882,
      "lon": 8.5498577,
      "tags": {
        "amenity": "parking"
      }
    },
    {
      "type": "node",
      "id": 1876570223,
      "lat": 46.3215799,
      "lon": 7.9816861,
      "tags": {
        "access": "customers",
        "amenity": "parking",
        "fee": "no",
        "operator": "La Caverna (Festung / Gardemuseum)",
        "parking": "surface"
      }
    },
    {
      "type": "node",
      "id": 7482854248,
      "lat": 46.3299921,
      "lon": 7.983078,
      "tags": {
        "amenity": "parking",
        "parking": "surface"
      }
    },
    {
      "type": "node",
      "id": 7482878397,
      "lat": 46.3343568,
      "lon": 7.9948252,
      "tags": {
        "amenity": "parking"
      }
    },
    {
      "type": "node",
      "id": 10695631201,
      "lat": 46.3222702,
      "lon": 7.9849929,
      "tags": {
        "amenity": "parking",
        "fee": "yes",
        "layer": "-1",
        "parking": "underground"
      }
    },
    {
      "type": "node",
      "id": 5782054554,
      "lat": 46.9895882,
      "lon": 8.5498577,
      "tags": {
        "amenity": "parking"
      }
    },
    {
      "type": "node",
      "id": 11091098387,
      "lat": 46.407026,
      "lon": 8.9914129,
      "tags": {
        "amenity": "parking"
      }
    },
    {
      "type": "node",
      "id": 11091167908,
      "lat": 46.4088621,
      "lon": 8.9903183,
      "tags": {
        "amenity": "parking"
      }
    },
    {
      "type": "node",
      "id": 8762125059,
      "lat": 46.7380729,
      "lon": 8.1680163,
      "tags": {
        "amenity": "parking"
      }
    },
    {
      "type": "node",
      "id": 8762125059,
      "lat": 46.7380729,
      "lon": 8.1680163,
      "tags": {
        "amenity": "parking"
      }
    },
    {
      "type": "node",
      "id": 7482854248,
      "lat": 46.3299921,
      "lon": 7.983078,
      "tags": {
        "amenity": "parking",
        "parking": "surface"
      }
    },
    {
      "type": "node",
      "id": 7482878397,
      "lat": 46.3343568,
      "lon": 7.9948252,
      "tags": {
        "amenity": "parking"
      }
    },
    {
      "type": "node",
      "id": 5782054554,
      "lat": 46.9895882,
      "lon": 8.5498577,
      "tags": {
        "amenity": "parking"
      }
    },
    {
      "type": "node",
      "id": 385384256,
      "lat": 47.2287724,
      "lon": 7.4264992,
      "tags": {
        "amenity": "parking",
        "parking": "street_side"
      }
    },
    {
      "type": "node",
      "id": 6445235626,
      "lat": 47.2908608,
      "lon": 7.4236425,
      "tags": {
        "amenity": "parking",
        "capacity": "3",
        "parking": "lane"
      }
    },
    {
      "type": "node",
      "id": 5782054554,
      "lat": 46.9895882,
      "lon": 8.5498577,
      "tags": {
        "amenity": "parking"
      }
    },
    {
      "type": "node",
      "id": 3104204020,
      "lat": 47.3256885,
      "lon": 7.7510648,
      "tags": {
        "amenity": "parking"
      }
    },
    {
      "type": "node",
      "id": 3104270991,
      "lat": 47.3259115,
      "lon": 7.7576461,
      "tags": {
        "access": "yes",
        "amenity": "parking",
        "fee": "no",
        "parking": "surface"
      }
    },
    {
      "type": "node",
      "id": 7508465030,
      "lat": 47.3146064,
      "lon": 7.7505427,
      "tags": {
        "amenity": "parking",
        "parking": "surface"
      }
    },
    {
      "type": "node",
      "id": 9740724614,
      "lat": 47.2445797,
      "lon": 7.5366822,
      "tags": {
        "access": "yes",
        "amenity": "parking",
        "fee": "no",
        "parking": "surface",
        "source": "survey"
      }
    },
    {
      "type": "node",
      "id": 6363545308,
      "lat": 47.1637695,
      "lon": 7.2159697,
      "tags": {
        "access": "yes",
        "amenity": "parking",
        "capacity": "8",
        "fee": "no",
        "parking": "surface",
        "wheelchair": "yes"
      }
    },
    {
      "type": "node",
      "id": 890206895,
      "lat": 46.6617425,
      "lon": 9.5760481,
      "tags": {
        "amenity": "parking",
        "capacity": "10",
        "fee": "yes",
        "parking": "surface"
      }
    },
    {
      "type": "node",
      "id": 890207033,
      "lat": 46.6628049,
      "lon": 9.5764551,
      "tags": {
        "amenity": "parking",
        "parking": "surface"
      }
    },
    {
      "type": "node",
      "id": 903914250,
      "lat": 46.663951,
      "lon": 9.5734862,
      "tags": {
        "amenity": "parking"
      }
    },
    {
      "type": "node",
      "id": 855108379,
      "lat": 47.1551334,
      "lon": 6.843192,
      "tags": {
        "amenity": "parking"
      }
    },
    {
      "type": "node",
      "id": 6776893944,
      "lat": 46.5142039,
      "lon": 6.2606711,
      "tags": {
        "access": "yes",
        "amenity": "parking",
        "capacity": "30",
        "fee": "no",
        "parking": "surface"
      }
    },
    {
      "type": "node",
      "id": 2537142801,
      "lat": 46.6273031,
      "lon": 7.389233,
      "tags": {
        "amenity": "parking"
      }
    },
    {
      "type": "node",
      "id": 7482878397,
      "lat": 46.3343568,
      "lon": 7.9948252,
      "tags": {
        "amenity": "parking"
      }
    },
    {
      "type": "node",
      "id": 3480505231,
      "lat": 47.2865336,
      "lon": 7.5182226,
      "tags": {
        "amenity": "parking"
      }
    },
    {
      "type": "node",
      "id": 6870084940,
      "lat": 47.2803729,
      "lon": 7.5279076,
      "tags": {
        "access": "yes",
        "amenity": "parking"
      }
    },
    {
      "type": "node",
      "id": 6870155562,
      "lat": 47.2799667,
      "lon": 7.5257018,
      "tags": {
        "amenity": "parking",
        "operator": "Restaurant",
        "operator:type": "unknown"
      }
    },
    {
      "type": "node",
      "id": 6870346428,
      "lat": 47.2803127,
      "lon": 7.5282418,
      "tags": {
        "amenity": "parking",
        "capacity": "5",
        "operator": "Volg",
        "parking": "surface"
      }
    },
    {
      "type": "node",
      "id": 6870915340,
      "lat": 47.2806184,
      "lon": 7.5298746,
      "tags": {
        "access": "customers",
        "amenity": "parking",
        "operator": "Hotel Kreuz"
      }
    },
    {
      "type": "node",
      "id": 6881865869,
      "lat": 47.2809591,
      "lon": 7.5298239,
      "tags": {
        "access": "customers",
        "amenity": "parking",
        "operator": "Hotel Kreuz"
      }
    },
    {
      "type": "node",
      "id": 779182467,
      "lat": 46.1030939,
      "lon": 8.9610807,
      "tags": {
        "amenity": "parking"
      }
    },
    {
      "type": "node",
      "id": 4249295098,
      "lat": 46.110771,
      "lon": 8.972986,
      "tags": {
        "amenity": "parking",
        "description": "spiazzo a lato strada, può ospitare circa 5 auto.",
        "fee": "no",
        "parking": "surface",
        "surface": "gravel"
      }
    },
    {
      "type": "node",
      "id": 8527140336,
      "lat": 46.1005027,
      "lon": 8.9615863,
      "tags": {
        "amenity": "parking"
      }
    },
    {
      "type": "node",
      "id": 9138312577,
      "lat": 46.0977601,
      "lon": 8.9650212,
      "tags": {
        "amenity": "parking"
      }
    },
    {
      "type": "node",
      "id": 7482878397,
      "lat": 46.3343568,
      "lon": 7.9948252,
      "tags": {
        "amenity": "parking"
      }
    },
    {
      "type": "node",
      "id": 5782054554,
      "lat": 46.9895882,
      "lon": 8.5498577,
      "tags": {
        "amenity": "parking"
      }
    },
    {
      "type": "node",
      "id": 10678610156,
      "lat": 47.0025884,
      "lon": 8.6007372,
      "tags": {
        "amenity": "parking",
        "parking": "underground"
      }
    },
    {
      "type": "node",
      "id": 6043668497,
      "lat": 46.8157373,
      "lon": 8.2835951,
      "tags": {
        "amenity": "parking"
      }
    },
    {
      "type": "node",
      "id": 6043668498,
      "lat": 46.8206216,
      "lon": 8.2836324,
      "tags": {
        "amenity": "parking",
        "parking": "street_side"
      }
    },
    {
      "type": "node",
      "id": 252467213,
      "lat": 47.2747684,
      "lon": 7.6001345,
      "tags": {
        "access": "yes",
        "amenity": "parking",
        "fee": "no",
        "parking": "surface"
      }
    },
    {
      "type": "node",
      "id": 11129260806,
      "lat": 47.2667174,
      "lon": 7.595251,
      "tags": {
        "amenity": "parking",
        "capacity": "4"
      }
    },
    {
      "type": "node",
      "id": 252467213,
      "lat": 47.2747684,
      "lon": 7.6001345,
      "tags": {
        "access": "yes",
        "amenity": "parking",
        "fee": "no",
        "parking": "surface"
      }
    },
    {
      "type": "node",
      "id": 2133929090,
      "lat": 46.8829427,
      "lon": 9.8742904,
      "tags": {
        "access": "yes",
        "amenity": "parking",
        "capacity": "3",
        "fee": "yes",
        "parking": "surface"
      }
    },
    {
      "type": "node",
      "id": 1928836554,
      "lat": 47.2239123,
      "lon": 7.2638812,
      "tags": {
        "amenity": "parking"
      }
    },
    {
      "type": "node",
      "id": 6259642315,
      "lat": 46.7955384,
      "lon": 8.2705238,
      "tags": {
        "amenity": "parking",
        "name": "Chesälawand",
        "parking": "surface"
      }
    },
    {
      "type": "node",
      "id": 6259642315,
      "lat": 46.7955384,
      "lon": 8.2705238,
      "tags": {
        "amenity": "parking",
        "name": "Chesälawand",
        "parking": "surface"
      }
    },
    {
      "type": "node",
      "id": 331326742,
      "lat": 47.0192777,
      "lon": 8.7515199,
      "tags": {
        "amenity": "parking",
        "surface": "unpaved"
      }
    },
    {
      "type": "node",
      "id": 331326748,
      "lat": 47.0160631,
      "lon": 8.735562,
      "tags": {
        "amenity": "parking"
      }
    },
    {
      "type": "node",
      "id": 2538564504,
      "lat": 47.0135053,
      "lon": 8.7311562,
      "tags": {
        "amenity": "parking"
      }
    },
    {
      "type": "node",
      "id": 331326748,
      "lat": 47.0160631,
      "lon": 8.735562,
      "tags": {
        "amenity": "parking"
      }
    },
    {
      "type": "node",
      "id": 2538564504,
      "lat": 47.0135053,
      "lon": 8.7311562,
      "tags": {
        "amenity": "parking"
      }
    },
    {
      "type": "node",
      "id": 2538564506,
      "lat": 47.0067269,
      "lon": 8.7321677,
      "tags": {
        "amenity": "parking"
      }
    },
    {
      "type": "node",
      "id": 6964736628,
      "lat": 47.0052507,
      "lon": 8.7302404,
      "tags": {
        "amenity": "parking",
        "fee": "no"
      }
    },
    {
      "type": "node",
      "id": 2424676381,
      "lat": 46.6026183,
      "lon": 7.4498196,
      "tags": {
        "amenity": "parking",
        "parking": "surface"
      }
    },
    {
      "type": "node",
      "id": 2424676381,
      "lat": 46.6026183,
      "lon": 7.4498196,
      "tags": {
        "amenity": "parking",
        "parking": "surface"
      }
    },
    {
      "type": "node",
      "id": 6259642315,
      "lat": 46.7955384,
      "lon": 8.2705238,
      "tags": {
        "amenity": "parking",
        "name": "Chesälawand",
        "parking": "surface"
      }
    },
    {
      "type": "node",
      "id": 12270466110,
      "lat": 46.5909689,
      "lon": 8.3211829,
      "tags": {
        "amenity": "parking"
      }
    },
    {
      "type": "node",
      "id": 12270466111,
      "lat": 46.5909438,
      "lon": 8.3216632,
      "tags": {
        "amenity": "parking"
      }
    },
    {
      "type": "node",
      "id": 12270466110,
      "lat": 46.5909689,
      "lon": 8.3211829,
      "tags": {
        "amenity": "parking"
      }
    },
    {
      "type": "node",
      "id": 12270466111,
      "lat": 46.5909438,
      "lon": 8.3216632,
      "tags": {
        "amenity": "parking"
      }
    },
    {
      "type": "node",
      "id": 12270466110,
      "lat": 46.5909689,
      "lon": 8.3211829,
      "tags": {
        "amenity": "parking"
      }
    },
    {
      "type": "node",
      "id": 12270466111,
      "lat": 46.5909438,
      "lon": 8.3216632,
      "tags": {
        "amenity": "parking"
      }
    },
    {
      "type": "node",
      "id": 10027858576,
      "lat": 46.5757768,
      "lon": 8.3346818,
      "tags": {
        "access": "yes",
        "amenity": "parking",
        "fee": "no"
      }
    },
    {
      "type": "node",
      "id": 12270458881,
      "lat": 46.5745738,
      "lon": 8.3344464,
      "tags": {
        "amenity": "parking"
      }
    },
    {
      "type": "node",
      "id": 11444812468,
      "lat": 46.6535214,
      "lon": 7.9530491,
      "tags": {
        "amenity": "parking",
        "capacity": "6",
        "parking": "surface"
      }
    },
    {
      "type": "node",
      "id": 11444823969,
      "lat": 46.6531153,
      "lon": 7.9533139,
      "tags": {
        "amenity": "parking",
        "capacity": "6",
        "parking": "surface"
      }
    },
    {
      "type": "node",
      "id": 10939712994,
      "lat": 46.9061213,
      "lon": 8.8425867,
      "tags": {
        "amenity": "parking"
      }
    },
    {
      "type": "node",
      "id": 10939712994,
      "lat": 46.9061213,
      "lon": 8.8425867,
      "tags": {
        "amenity": "parking"
      }
    }
  ]
}